[ {"name": "TIANMU-1 21", "line1": "1 58662U 23208C   26156.18751309  .00011250  00000+0  33489-3 0  9994", "line2": "2 58662  97.4496 275.6806 0006977  11.6287 348.5116 15.34856494135721"}, {"name": "TIANMU-1 22", "line1": "1 58663U 23208D   26156.17721606  .00008886  00000+0  30023-3 0  9993", "line2": "2 58663  97.4491 272.3643 0004324  43.1049 317.0530 15.30884089135492"}, {"name": "TIANMU-1 15", "line1": "1 58700U 24004A   26156.17189200  .00006705  00000+0  25642-3 0  9997", "line2": "2 58700  97.4671 342.3608 0007827  41.9538 318.2298 15.26894769133946"}, {"name": "TIANMU-1 16", "line1": "1 58701U 24004B   26156.22451076  .00006607  00000+0  25485-3 0  9993", "line2": "2 58701  97.4618 341.6640 0006921  46.3266 313.8545 15.26621130133954"}, {"name": "TIANMU-1 17", "line1": "1 58702U 24004C   26156.20995955  .00006772  00000+0  26117-3 0  9997", "line2": "2 58702  97.4646 342.1299 0006589  51.8167 308.3664 15.26620764133945"}, {"name": "TIANMU-1 18", "line1": "1 58703U 24004D   26156.18837194  .00006926  00000+0  26503-3 0  9995", "line2": "2 58703  97.4663 342.3562 0005084  50.7074 309.4614 15.26880006133948"}, {"name": "INSAT-3DS", "line1": "1 58990U 24033A   26156.08037617 -.00000143  00000+0  00000+0 0  9992", "line2": "2 58990   0.0096 304.2430 0001561 124.4339 295.8387  1.00270662 46942"}, {"name": "METEOR-M2 4", "line1": "1 59051U 24039A   26156.15493932  .00000022  00000+0  29599-4 0  9995", "line2": "2 59051  98.7006 115.6046 0006570 196.0815 164.0155 14.22428273117559"}, {"name": "GOES 19", "line1": "1 60133U 24119A   26156.14583652 -.00000236  00000+0  00000+0 0  9994", "line2": "2 60133   0.0452 133.3071 0000670   1.0831  96.5071  1.00271340  6844"}, {"name": "MTG-S1", "line1": "1 64723U 25143A   26156.13477845 -.00000020  00000+0  00000+0 0  9997", "line2": "2 64723   0.6139 336.2823 0001169  37.1723 285.1622  1.00271612  3290"}, {"name": "METOP-SGA1", "line1": "1 65159U 25172A   26156.03209475  .00000060  00000+0  47436-4 0  9996", "line2": "2 65159  98.6647 215.9811 0000985  85.9787 274.1503 14.21507739 42064"}, {"name": "FENGYUN 3H", "line1": "1 65815U 25219A   26156.06179088  .00000079  00000+0  57583-4 0  9990", "line2": "2 65815  98.6765  97.0669 0001649  87.5288 272.6077 14.19918265 35660"}]