OBJECT_NAME,OBJECT_ID,EPOCH,MEAN_MOTION,ECCENTRICITY,INCLINATION,RA_OF_ASC_NODE,ARG_OF_PERICENTER,MEAN_ANOMALY,EPHEMERIS_TYPE,CLASSIFICATION_TYPE,NORAD_CAT_ID,ELEMENT_SET_NO,REV_AT_EPOCH,BSTAR,MEAN_MOTION_DOT,MEAN_MOTION_DDOT
TIANMU-1 21,2023-208C,2026-06-05T04:30:01.130976,15.34856494,.0006977,97.4496,275.6806,11.6287,348.5116,0,U,58662,999,13572,.33489E-3,.1125E-3,0
TIANMU-1 22,2023-208D,2026-06-05T04:15:11.467584,15.30884089,.0004324,97.4491,272.3643,43.1049,317.0530,0,U,58663,999,13549,.30023E-3,.8886E-4,0
TIANMU-1 15,2024-004A,2026-06-05T04:07:31.468800,15.26894769,.0007827,97.4671,342.3608,41.9538,318.2298,0,U,58700,999,13394,.25642E-3,.6705E-4,0
TIANMU-1 16,2024-004B,2026-06-05T05:23:17.729664,15.26621130,.0006921,97.4618,341.6640,46.3266,313.8545,0,U,58701,999,13395,.25485E-3,.6607E-4,0
TIANMU-1 17,2024-004C,2026-06-05T05:02:20.505120,15.26620764,.0006589,97.4646,342.1299,51.8167,308.3664,0,U,58702,999,13394,.26117E-3,.6772E-4,0
TIANMU-1 18,2024-004D,2026-06-05T04:31:15.335616,15.26880006,.0005084,97.4663,342.3562,50.7074,309.4614,0,U,58703,999,13394,.26503E-3,.6926E-4,0
INSAT-3DS,2024-033A,2026-06-05T01:55:44.501088,1.00270662,.0001561,0.0096,304.2430,124.4339,295.8387,0,U,58990,999,4694,0,-.143E-5,0
METEOR-M2 4,2024-039A,2026-06-05T03:43:06.757248,14.22428273,.000657,98.7006,115.6046,196.0815,164.0155,0,U,59051,999,11755,.29599E-4,.22E-6,0
GOES 19,2024-119A,2026-06-05T03:30:00.275328,1.00271340,.000067,0.0452,133.3071,1.0831,96.5071,0,U,60133,999,684,0,-.236E-5,0
MTG-S1,2025-143A,2026-06-05T03:14:04.858080,1.00271612,.0001169,0.6139,336.2823,37.1723,285.1622,0,U,64723,999,329,0,-.2E-6,0
METOP-SGA1,2025-172A,2026-06-05T00:46:12.986400,14.21507739,.0000985,98.6647,215.9811,85.9787,274.1503,0,U,65159,999,4206,.47436E-4,.6E-6,0
FENGYUN 3H,2025-219A,2026-06-05T01:28:58.732032,14.19918265,.0001649,98.6765,97.0669,87.5288,272.6077,0,U,65815,999,3566,.57583E-4,.79E-6,0
